[{"OBJECT_NAME":"STARLINK-34499","OBJECT_ID":"2025-142P","EPOCH":"2026-01-30T07:21:06.741792","MEAN_MOTION":14.98370893,"ECCENTRICITY":0.0002706,"INCLINATION":70.0024,"RA_OF_ASC_NODE":51.1169,"ARG_OF_PERICENTER":266.1085,"MEAN_ANOMALY":93.9765,"EPHEMERIS_TYPE":0,"CLASSIFICATION_TYPE":"U","NORAD_CAT_ID":64709,"ELEMENT_SET_NO":999,"REV_AT_EPOCH":3371,"BSTAR":0.0019833,"MEAN_MOTION_DOT":0.00023676,"MEAN_MOTION_DDOT":0},{"OBJECT_NAME":"STARLINK-34447","OBJECT_ID":"2025-142Q","EPOCH":"2026-01-31T00:05:06.951552","MEAN_MOTION":14.95912856,"ECCENTRICITY":0.00032167,"INCLINATION":70.0014,"RA_OF_ASC_NODE":49.1333,"ARG_OF_PERICENTER":270.5138,"MEAN_ANOMALY":89.5651,"EPHEMERIS_TYPE":0,"CLASSIFICATION_TYPE":"U","NORAD_CAT_ID":64710,"ELEMENT_SET_NO":999,"REV_AT_EPOCH":3401,"BSTAR":0.0002109582,"MEAN_MOTION_DOT":2.275e-5,"MEAN_MOTION_DDOT":0},{"OBJECT_NAME":"STARLINK-34312","OBJECT_ID":"2025-142R","EPOCH":"2026-01-30T16:00:01.999584","MEAN_MOTION":14.98354065,"ECCENTRICITY":0.000315,"INCLINATION":70.0012,"RA_OF_ASC_NODE":50.3054,"ARG_OF_PERICENTER":272.5065,"MEAN_ANOMALY":162.3184,"EPHEMERIS_TYPE":0,"CLASSIFICATION_TYPE":"U","NORAD_CAT_ID":64711,"ELEMENT_SET_NO":999,"REV_AT_EPOCH":578,"BSTAR":-0.0039833596,"MEAN_MOTION_DOT":-0.00047332,"MEAN_MOTION_DDOT":0},{"OBJECT_NAME":"STARLINK-34515","OBJECT_ID":"2025-142S","EPOCH":"2026-01-30T18:22:16.192416","MEAN_MOTION":14.9832934,"ECCENTRICITY":0.00029259,"INCLINATION":70.0013,"RA_OF_ASC_NODE":49.9073,"ARG_OF_PERICENTER":266.8756,"MEAN_ANOMALY":93.2069,"EPHEMERIS_TYPE":0,"CLASSIFICATION_TYPE":"U","NORAD_CAT_ID":64712,"ELEMENT_SET_NO":999,"REV_AT_EPOCH":3378,"BSTAR":-0.00017496698,"MEAN_MOTION_DOT":-2.18e-5,"MEAN_MOTION_DDOT":0},{"OBJECT_NAME":"STARLINK-34583","OBJECT_ID":"2025-142T","EPOCH":"2026-01-30T11:30:19.297728","MEAN_MOTION":14.9592026,"ECCENTRICITY":0.00036065,"INCLINATION":70.0011,"RA_OF_ASC_NODE":50.909,"ARG_OF_PERICENTER":274.8515,"MEAN_ANOMALY":85.2231,"EPHEMERIS_TYPE":0,"CLASSIFICATION_TYPE":"U","NORAD_CAT_ID":64713,"ELEMENT_SET_NO":999,"REV_AT_EPOCH":3373,"BSTAR":0.0006318518,"MEAN_MOTION_DOT":7.003e-5,"MEAN_MOTION_DDOT":0},{"OBJECT_NAME":"STARLINK-34574","OBJECT_ID":"2025-142U","EPOCH":"2026-01-30T11:09:42.045408","MEAN_MOTION":14.98336198,"ECCENTRICITY":0.0003098,"INCLINATION":70.0015,"RA_OF_ASC_NODE":50.8895,"ARG_OF_PERICENTER":271.6729,"MEAN_ANOMALY":88.4076,"EPHEMERIS_TYPE":0,"CLASSIFICATION_TYPE":"U","NORAD_CAT_ID":64714,"ELEMENT_SET_NO":999,"REV_AT_EPOCH":3376,"BSTAR":0.00029657832,"MEAN_MOTION_DOT":3.448e-5,"MEAN_MOTION_DDOT":0},{"OBJECT_NAME":"STARLINK-34533","OBJECT_ID":"2025-142V","EPOCH":"2026-01-30T18:52:06.278592","MEAN_MOTION":14.98334665,"ECCENTRICITY":0.00025851,"INCLINATION":70.0024,"RA_OF_ASC_NODE":50.0085,"ARG_OF_PERICENTER":272.7933,"MEAN_ANOMALY":87.293,"EPHEMERIS_TYPE":0,"CLASSIFICATION_TYPE":"U","NORAD_CAT_ID":64715,"ELEMENT_SET_NO":999,"REV_AT_EPOCH":3378,"BSTAR":0.0005614554,"MEAN_MOTION_DOT":6.613e-5,"MEAN_MOTION_DDOT":0},{"OBJECT_NAME":"STARLINK-34548","OBJECT_ID":"2025-142W","EPOCH":"2026-01-30T18:28:03.648288","MEAN_MOTION":14.98331207,"ECCENTRICITY":0.000318,"INCLINATION":70.0019,"RA_OF_ASC_NODE":49.9491,"ARG_OF_PERICENTER":270.357,"MEAN_ANOMALY":89.7225,"EPHEMERIS_TYPE":0,"CLASSIFICATION_TYPE":"U","NORAD_CAT_ID":64716,"ELEMENT_SET_NO":999,"REV_AT_EPOCH":3378,"BSTAR":0.00049908149,"MEAN_MOTION_DOT":5.867e-5,"MEAN_MOTION_DDOT":0},{"OBJECT_NAME":"STARLINK-34568","OBJECT_ID":"2025-142X","EPOCH":"2026-01-30T11:03:27.266400","MEAN_MOTION":14.98336903,"ECCENTRICITY":0.00031157,"INCLINATION":70.0012,"RA_OF_ASC_NODE":50.8793,"ARG_OF_PERICENTER":271.0341,"MEAN_ANOMALY":89.0462,"EPHEMERIS_TYPE":0,"CLASSIFICATION_TYPE":"U","NORAD_CAT_ID":64717,"ELEMENT_SET_NO":999,"REV_AT_EPOCH":3376,"BSTAR":0.00027090608,"MEAN_MOTION_DOT":3.141e-5,"MEAN_MOTION_DDOT":0},{"OBJECT_NAME":"STARLINK-34546","OBJECT_ID":"2025-142Y","EPOCH":"2026-01-30T18:16:01.803072","MEAN_MOTION":14.98340769,"ECCENTRICITY":0.0001881,"INCLINATION":70.0046,"RA_OF_ASC_NODE":49.9155,"ARG_OF_PERICENTER":300.3906,"MEAN_ANOMALY":59.7067,"EPHEMERIS_TYPE":0,"CLASSIFICATION_TYPE":"U","NORAD_CAT_ID":64718,"ELEMENT_SET_NO":999,"REV_AT_EPOCH":3397,"BSTAR":0.00066309456,"MEAN_MOTION_DOT":7.83e-5,"MEAN_MOTION_DDOT":0},{"OBJECT_NAME":"STARLINK-34577","OBJECT_ID":"2025-142Z","EPOCH":"2026-01-30T11:12:25.421760","MEAN_MOTION":14.95909465,"ECCENTRICITY":0.00029007,"INCLINATION":70.002,"RA_OF_ASC_NODE":50.4729,"ARG_OF_PERICENTER":276.2207,"MEAN_ANOMALY":83.8621,"EPHEMERIS_TYPE":0,"CLASSIFICATION_TYPE":"U","NORAD_CAT_ID":64719,"ELEMENT_SET_NO":999,"REV_AT_EPOCH":3377,"BSTAR":0.00015966346,"MEAN_MOTION_DOT":1.7e-5,"MEAN_MOTION_DDOT":0},{"OBJECT_NAME":"STARLINK-34572","OBJECT_ID":"2025-142AA","EPOCH":"2026-01-30T10:57:26.022816","MEAN_MOTION":14.98324591,"ECCENTRICITY":0.00030044,"INCLINATION":70.0014,"RA_OF_ASC_NODE":50.8632,"ARG_OF_PERICENTER":272.498,"MEAN_ANOMALY":87.5835,"EPHEMERIS_TYPE":0,"CLASSIFICATION_TYPE":"U","NORAD_CAT_ID":64720,"ELEMENT_SET_NO":999,"REV_AT_EPOCH":3392,"BSTAR":-1.881835e-5,"MEAN_MOTION_DOT":-3.17e-6,"MEAN_MOTION_DDOT":0},{"OBJECT_NAME":"STARLINK-34558","OBJECT_ID":"2025-142AB","EPOCH":"2026-01-30T10:57:40.633056","MEAN_MOTION":14.98334288,"ECCENTRICITY":0.00032484,"INCLINATION":70.0034,"RA_OF_ASC_NODE":50.859,"ARG_OF_PERICENTER":268.2554,"MEAN_ANOMALY":91.8233,"EPHEMERIS_TYPE":0,"CLASSIFICATION_TYPE":"U","NORAD_CAT_ID":64721,"ELEMENT_SET_NO":999,"REV_AT_EPOCH":3373,"BSTAR":0.00065744361,"MEAN_MOTION_DOT":7.761e-5,"MEAN_MOTION_DDOT":0},{"OBJECT_NAME":"STARLINK-34393","OBJECT_ID":"2025-144A","EPOCH":"2026-01-30T22:11:49.686432","MEAN_MOTION":15.30213905,"ECCENTRICITY":0.0001375,"INCLINATION":53.1611,"RA_OF_ASC_NODE":356.192,"ARG_OF_PERICENTER":113.8492,"MEAN_ANOMALY":246.2653,"EPHEMERIS_TYPE":0,"CLASSIFICATION_TYPE":"U","NORAD_CAT_ID":64724,"ELEMENT_SET_NO":999,"REV_AT_EPOCH":3394,"BSTAR":0.00086159197,"MEAN_MOTION_DOT":0.00025256,"MEAN_MOTION_DDOT":0},{"OBJECT_NAME":"STARLINK-34562","OBJECT_ID":"2025-144B","EPOCH":"2026-01-30T15:20:49.870176","MEAN_MOTION":15.30200011,"ECCENTRICITY":0.0001389,"INCLINATION":53.1626,"RA_OF_ASC_NODE":357.9681,"ARG_OF_PERICENTER":89.4987,"MEAN_ANOMALY":270.6173,"EPHEMERIS_TYPE":0,"CLASSIFICATION_TYPE":"U","NORAD_CAT_ID":64725,"ELEMENT_SET_NO":999,"REV_AT_EPOCH":3386,"BSTAR":0.00049685264,"MEAN_MOTION_DOT":0.00014385,"MEAN_MOTION_DDOT":0},{"OBJECT_NAME":"STARLINK-34557","OBJECT_ID":"2025-144C","EPOCH":"2026-01-30T07:00:10.528128","MEAN_MOTION":15.30184586,"ECCENTRICITY":0.00013,"INCLINATION":53.1617,"RA_OF_ASC_NODE":359.3488,"ARG_OF_PERICENTER":109.965,"MEAN_ANOMALY":250.1491,"EPHEMERIS_TYPE":0,"CLASSIFICATION_TYPE":"U","NORAD_CAT_ID":64726,"ELEMENT_SET_NO":999,"REV_AT_EPOCH":3383,"BSTAR":0.00073627,"MEAN_MOTION_DOT":0.000215,"MEAN_MOTION_DDOT":0}]
