STARLINK-34499          
1 64709U 25142P   26030.30632803  .00023676  00000+0  19833-2 0  9995
2 64709  70.0024  51.1169 0002706 266.1085  93.9765 14.98370893 33712
STARLINK-34447          
1 64710U 25142Q   26031.00355268  .00002275  00000+0  21096-3 0  9999
2 64710  70.0014  49.1333 0003216 270.5138  89.5651 14.95912856 34015
STARLINK-34312          
1 64711U 25142R   26030.66668981 -.00047332  00000+0 -39834-2 0  9993
2 64711  70.0012  50.3054 0003150 272.5065 162.3184 14.98354065  5784
STARLINK-34515          
1 64712U 25142S   26030.76546519 -.00002180  00000+0 -17497-3 0  9991
2 64712  70.0013  49.9073 0002925 266.8756  93.2069 14.98329340 33786
STARLINK-34583          
1 64713U 25142T   26030.47939002  .00007003  00000+0  63185-3 0  9995
2 64713  70.0011  50.9090 0003606 274.8515  85.2231 14.95920260 33737
STARLINK-34574          
1 64714U 25142U   26030.46506997  .00003448  00000+0  29658-3 0  9994
2 64714  70.0015  50.8895 0003098 271.6729  88.4076 14.98336198 33760
STARLINK-34533          
1 64715U 25142V   26030.78618378  .00006613  00000+0  56146-3 0  9996
2 64715  70.0024  50.0085 0002585 272.7933  87.2930 14.98334665 33788
STARLINK-34548          
1 64716U 25142W   26030.76948667  .00005867  00000+0  49908-3 0  9990
2 64716  70.0019  49.9491 0003180 270.3570  89.7225 14.98331207 33787
STARLINK-34568          
1 64717U 25142X   26030.46073225  .00003141  00000+0  27091-3 0  9999
2 64717  70.0012  50.8793 0003115 271.0341  89.0462 14.98336903 33761
STARLINK-34546          
1 64718U 25142Y   26030.76113198  .00007830  00000+0  66309-3 0  9991
2 64718  70.0046  49.9155 0001881 300.3906  59.7067 14.98340769 33974
STARLINK-34577          
1 64719U 25142Z   26030.46696090  .00001700  00000+0  15966-3 0  9999
2 64719  70.0020  50.4729 0002900 276.2207  83.8621 14.95909465 33772
STARLINK-34572          
1 64720U 25142AA  26030.45655119 -.00000317  00000+0 -18818-4 0  9992
2 64720  70.0014  50.8632 0003004 272.4980  87.5835 14.98324591 33925
STARLINK-34558          
1 64721U 25142AB  26030.45672029  .00007761  00000+0  65744-3 0  9999
2 64721  70.0034  50.8590 0003248 268.2554  91.8233 14.98334288 33734
STARLINK-34393          
1 64724U 25144A   26030.92488063  .00025256  00000+0  86159-3 0  9991
2 64724  53.1611 356.1920 0001375 113.8492 246.2653 15.30213905 33948
STARLINK-34562          
1 64725U 25144B   26030.63946609  .00014385  00000+0  49685-3 0  9999
2 64725  53.1626 357.9681 0001389  89.4987 270.6173 15.30200011 33863
STARLINK-34557          
1 64726U 25144C   26030.29178852  .00021500  00000+0  73627-3 0  9999
2 64726  53.1617 359.3488 0001300 109.9650 250.1491 15.30184586 33834
